CCSDS_OMM_VERS = 2.0
CREATION_DATE  = 
ORIGINATOR     = 

OBJECT_NAME    = SL-4 R/B
OBJECT_ID      = 2014-021B
CENTER_NAME    = EARTH
REF_FRAME      = TEME
TIME_SYSTEM    = UTC
MEAN_ELEMENT_THEORY = SGP/SGP4

EPOCH          = 2026-01-27T06:02:10.392288
MEAN_MOTION    = 15.37879264
ECCENTRICITY   = .00990417
INCLINATION    = 51.6055
RA_OF_ASC_NODE = 179.2215
ARG_OF_PERICENTER = 311.8533
MEAN_ANOMALY   = 47.4027

EPHEMERIS_TYPE = 0
CLASSIFICATION_TYPE = U
NORAD_CAT_ID   = 39679
ELEMENT_SET_NO = 999
REV_AT_EPOCH   = 64989
BSTAR          = .35855762E-3
MEAN_MOTION_DOT = .15634E-3
MEAN_MOTION_DDOT = 0

CCSDS_OMM_VERS = 2.0
CREATION_DATE  = 
ORIGINATOR     = 

OBJECT_NAME    = ALOS-2
OBJECT_ID      = 2014-029A
CENTER_NAME    = EARTH
REF_FRAME      = TEME
TIME_SYSTEM    = UTC
MEAN_ELEMENT_THEORY = SGP/SGP4

EPOCH          = 2026-01-27T06:14:20.048064
MEAN_MOTION    = 14.79474086
ECCENTRICITY   = .00014183
INCLINATION    = 97.9196
RA_OF_ASC_NODE = 126.4521
ARG_OF_PERICENTER = 105.2223
MEAN_ANOMALY   = 254.9145

EPHEMERIS_TYPE = 0
CLASSIFICATION_TYPE = U
NORAD_CAT_ID   = 39766
ELEMENT_SET_NO = 999
REV_AT_EPOCH   = 63074
BSTAR          = .12219504E-3
MEAN_MOTION_DOT = .861E-5
MEAN_MOTION_DDOT = 0

CCSDS_OMM_VERS = 2.0
CREATION_DATE  = 
ORIGINATOR     = 

OBJECT_NAME    = YAOGAN-29
OBJECT_ID      = 2015-069A
CENTER_NAME    = EARTH
REF_FRAME      = TEME
TIME_SYSTEM    = UTC
MEAN_ELEMENT_THEORY = SGP/SGP4

EPOCH          = 2026-01-27T07:09:43.570944
MEAN_MOTION    = 14.82944657
ECCENTRICITY   = .000279
INCLINATION    = 98.0193
RA_OF_ASC_NODE = 55.6098
ARG_OF_PERICENTER = 106.2820
MEAN_ANOMALY   = 253.8700

EPHEMERIS_TYPE = 0
CLASSIFICATION_TYPE = U
NORAD_CAT_ID   = 41038
ELEMENT_SET_NO = 999
REV_AT_EPOCH   = 54974
BSTAR          = .12323712E-3
MEAN_MOTION_DOT = .946E-5
MEAN_MOTION_DDOT = 0

CCSDS_OMM_VERS = 2.0
CREATION_DATE  = 
ORIGINATOR     = 

OBJECT_NAME    = ASTRO-H (HITOMI)
OBJECT_ID      = 2016-012A
CENTER_NAME    = EARTH
REF_FRAME      = TEME
TIME_SYSTEM    = UTC
MEAN_ELEMENT_THEORY = SGP/SGP4

EPOCH          = 2026-01-26T23:38:31.011360
MEAN_MOTION    = 15.09691312
ECCENTRICITY   = .0009909
INCLINATION    = 30.9993
RA_OF_ASC_NODE = 265.6156
ARG_OF_PERICENTER = 273.9324
MEAN_ANOMALY   = 86.0181

EPHEMERIS_TYPE = 0
CLASSIFICATION_TYPE = U
NORAD_CAT_ID   = 41337
ELEMENT_SET_NO = 999
REV_AT_EPOCH   = 54592
BSTAR          = .26036432E-3
MEAN_MOTION_DOT = .4397E-4
MEAN_MOTION_DDOT = 0

CCSDS_OMM_VERS = 2.0
CREATION_DATE  = 
ORIGINATOR     = 

OBJECT_NAME    = HXMT (HUIYAN)
OBJECT_ID      = 2017-034A
CENTER_NAME    = EARTH
REF_FRAME      = TEME
TIME_SYSTEM    = UTC
MEAN_ELEMENT_THEORY = SGP/SGP4

EPOCH          = 2026-01-27T07:14:18.305664
MEAN_MOTION    = 15.16912425
ECCENTRICITY   = .00326383
INCLINATION    = 43.0132
RA_OF_ASC_NODE = 246.6785
ARG_OF_PERICENTER = 330.7084
MEAN_ANOMALY   = 29.1934

EPHEMERIS_TYPE = 0
CLASSIFICATION_TYPE = U
NORAD_CAT_ID   = 42758
ELEMENT_SET_NO = 999
REV_AT_EPOCH   = 47625
BSTAR          = .37393152E-3
MEAN_MOTION_DOT = .7372E-4
MEAN_MOTION_DDOT = 0

CCSDS_OMM_VERS = 2.0
CREATION_DATE  = 
ORIGINATOR     = 

OBJECT_NAME    = CZ-2C R/B
OBJECT_ID      = 2018-054D
CENTER_NAME    = EARTH
REF_FRAME      = TEME
TIME_SYSTEM    = UTC
MEAN_ELEMENT_THEORY = SGP/SGP4

EPOCH          = 2026-01-26T15:43:15.130272
MEAN_MOTION    = 15.88244156
ECCENTRICITY   = .0013025
INCLINATION    = 35.1307
RA_OF_ASC_NODE = 233.5843
ARG_OF_PERICENTER = 254.6267
MEAN_ANOMALY   = 105.3031

EPHEMERIS_TYPE = 0
CLASSIFICATION_TYPE = U
NORAD_CAT_ID   = 43521
ELEMENT_SET_NO = 999
REV_AT_EPOCH   = 42216
BSTAR          = .8291E-3
MEAN_MOTION_DOT = .245988E-2
MEAN_MOTION_DDOT = 0

CCSDS_OMM_VERS = 2.0
CREATION_DATE  = 
ORIGINATOR     = 

OBJECT_NAME    = SAOCOM 1A
OBJECT_ID      = 2018-076A
CENTER_NAME    = EARTH
REF_FRAME      = TEME
TIME_SYSTEM    = UTC
MEAN_ELEMENT_THEORY = SGP/SGP4

EPOCH          = 2026-01-27T07:24:56.881152
MEAN_MOTION    = 14.82168982
ECCENTRICITY   = .00015336
INCLINATION    = 97.8867
RA_OF_ASC_NODE = 216.0699
ARG_OF_PERICENTER = 80.9272
MEAN_ANOMALY   = 279.2115

EPHEMERIS_TYPE = 0
CLASSIFICATION_TYPE = U
NORAD_CAT_ID   = 43641
ELEMENT_SET_NO = 999
REV_AT_EPOCH   = 39523
BSTAR          = .63102314E-4
MEAN_MOTION_DOT = .45E-5
MEAN_MOTION_DDOT = 0

CCSDS_OMM_VERS = 2.0
CREATION_DATE  = 
ORIGINATOR     = 

OBJECT_NAME    = H-2A R/B
OBJECT_ID      = 2018-084L
CENTER_NAME    = EARTH
REF_FRAME      = TEME
TIME_SYSTEM    = UTC
MEAN_ELEMENT_THEORY = SGP/SGP4

EPOCH          = 2026-01-27T06:56:41.546400
MEAN_MOTION    = 15.39455530
ECCENTRICITY   = .00260594
INCLINATION    = 98.8767
RA_OF_ASC_NODE = 235.8856
ARG_OF_PERICENTER = 165.4436
MEAN_ANOMALY   = 194.7561

EPHEMERIS_TYPE = 0
CLASSIFICATION_TYPE = U
NORAD_CAT_ID   = 43682
ELEMENT_SET_NO = 999
REV_AT_EPOCH   = 39940
BSTAR          = .75134566E-3
MEAN_MOTION_DOT = .29769E-3
MEAN_MOTION_DDOT = 0

CCSDS_OMM_VERS = 2.0
CREATION_DATE  = 
ORIGINATOR     = 

OBJECT_NAME    = SAOCOM 1B
OBJECT_ID      = 2020-059A
CENTER_NAME    = EARTH
REF_FRAME      = TEME
TIME_SYSTEM    = UTC
MEAN_ELEMENT_THEORY = SGP/SGP4

EPOCH          = 2026-01-27T06:32:44.906208
MEAN_MOTION    = 14.82145861
ECCENTRICITY   = .00013609
INCLINATION    = 97.8862
RA_OF_ASC_NODE = 215.1326
ARG_OF_PERICENTER = 86.4191
MEAN_ANOMALY   = 273.7178

EPHEMERIS_TYPE = 0
CLASSIFICATION_TYPE = U
NORAD_CAT_ID   = 46265
ELEMENT_SET_NO = 999
REV_AT_EPOCH   = 29261
BSTAR          = .11811739E-3
MEAN_MOTION_DOT = .888E-5
MEAN_MOTION_DDOT = 0

CCSDS_OMM_VERS = 2.0
CREATION_DATE  = 
ORIGINATOR     = 

OBJECT_NAME    = CSS (TIANHE)
OBJECT_ID      = 2021-035A
CENTER_NAME    = EARTH
REF_FRAME      = TEME
TIME_SYSTEM    = UTC
MEAN_ELEMENT_THEORY = SGP/SGP4

EPOCH          = 2026-01-27T05:29:13.184448
MEAN_MOTION    = 15.61162625
ECCENTRICITY   = .00096105
INCLINATION    = 41.4668
RA_OF_ASC_NODE = 100.1488
ARG_OF_PERICENTER = 12.9721
MEAN_ANOMALY   = 347.1363

EPHEMERIS_TYPE = 0
CLASSIFICATION_TYPE = U
NORAD_CAT_ID   = 48274
ELEMENT_SET_NO = 999
REV_AT_EPOCH   = 27113
BSTAR          = .33868129E-3
MEAN_MOTION_DOT = .29284E-3
MEAN_MOTION_DDOT = 0

CCSDS_OMM_VERS = 2.0
CREATION_DATE  = 
ORIGINATOR     = 

OBJECT_NAME    = COSMOS 2550
OBJECT_ID      = 2021-056A
CENTER_NAME    = EARTH
REF_FRAME      = TEME
TIME_SYSTEM    = UTC
MEAN_ELEMENT_THEORY = SGP/SGP4

EPOCH          = 2026-01-26T03:10:39.828288
MEAN_MOTION    = 15.33840202
ECCENTRICITY   = .00083094
INCLINATION    = 67.1441
RA_OF_ASC_NODE = 169.6578
ARG_OF_PERICENTER = 269.8947
MEAN_ANOMALY   = 90.1255

EPHEMERIS_TYPE = 0
CLASSIFICATION_TYPE = U
NORAD_CAT_ID   = 48865
ELEMENT_SET_NO = 999
REV_AT_EPOCH   = 25693
BSTAR          = .322698E-6
MEAN_MOTION_DOT = -.181E-5
MEAN_MOTION_DDOT = 0

CCSDS_OMM_VERS = 2.0
CREATION_DATE  = 
ORIGINATOR     = 

OBJECT_NAME    = CZ-2C R/B
OBJECT_ID      = 2022-058K
CENTER_NAME    = EARTH
REF_FRAME      = TEME
TIME_SYSTEM    = UTC
MEAN_ELEMENT_THEORY = SGP/SGP4

EPOCH          = 2026-01-27T01:38:16.064736
MEAN_MOTION    = 15.51332759
ECCENTRICITY   = .00425532
INCLINATION    = 50.1880
RA_OF_ASC_NODE = 171.9154
ARG_OF_PERICENTER = 24.9417
MEAN_ANOMALY   = 335.3597

EPHEMERIS_TYPE = 0
CLASSIFICATION_TYPE = U
NORAD_CAT_ID   = 52794
ELEMENT_SET_NO = 999
REV_AT_EPOCH   = 20366
BSTAR          = .63398423E-3
MEAN_MOTION_DOT = .39155E-3
MEAN_MOTION_DDOT = 0

