SL-4 R/B                
1 39679U 14021B   26027.25150917  .00015634  00000+0  35856-3 0  9997
2 39679  51.6055 179.2215 0099041 311.8533  47.4027 15.37879264649894
ALOS-2                  
1 39766U 14029A   26027.25995426  .00000861  00000+0  12220-3 0  9990
2 39766  97.9196 126.4521 0001418 105.2223 254.9145 14.79474086630744
YAOGAN-29               
1 41038U 15069A   26027.29842096  .00000946  00000+0  12324-3 0  9997
2 41038  98.0193  55.6098 0002790 106.2820 253.8700 14.82944657549742
ASTRO-H (HITOMI)        
1 41337U 16012A   26026.98508115  .00004397  00000+0  26036-3 0  9993
2 41337  30.9993 265.6156 0009909 273.9324  86.0181 15.09691312545927
HXMT (HUIYAN)           
1 42758U 17034A   26027.30160076  .00007372  00000+0  37393-3 0  9997
2 42758  43.0132 246.6785 0032638 330.7084  29.1934 15.16912425476254
CZ-2C R/B               
1 43521U 18054D   26026.65503623  .00245988  00000+0  82910-3 0  9997
2 43521  35.1307 233.5843 0013025 254.6267 105.3031 15.88244156422169
SAOCOM 1A               
1 43641U 18076A   26027.30899168  .00000450  00000+0  63102-4 0  9995
2 43641  97.8867 216.0699 0001533  80.9272 279.2115 14.82168982395236
H-2A R/B                
1 43682U 18084L   26027.28936975  .00029769  00000+0  75135-3 0  9996
2 43682  98.8767 235.8856 0026059 165.4436 194.7561 15.39455530399406
SAOCOM 1B               
1 46265U 20059A   26027.27274197  .00000888  00000+0  11812-3 0  9994
2 46265  97.8862 215.1326 0001360  86.4191 273.7178 14.82145861292619
CSS (TIANHE)            
1 48274U 21035A   26027.22862482  .00029284  00000+0  33868-3 0  9992
2 48274  41.4668 100.1488 0009610  12.9721 347.1363 15.61162625271132
COSMOS 2550             
1 48865U 21056A   26026.13240542 -.00000181  00000+0  32270-6 0  9992
2 48865  67.1441 169.6578 0008309 269.8947  90.1255 15.33840202256938
CZ-2C R/B               
1 52794U 22058K   26027.06824149  .00039155  00000+0  63398-3 0  9999
2 52794  50.1880 171.9154 0042553  24.9417 335.3597 15.51332759203668
